[{"OBJECT_NAME":"STARLINK-4029","OBJECT_ID":"2022-053AF","EPOCH":"2026-03-09T12:43:31.433088","MEAN_MOTION":15.08851341,"ECCENTRICITY":9.716e-5,"INCLINATION":53.2172,"RA_OF_ASC_NODE":144.8387,"ARG_OF_PERICENTER":77.1563,"MEAN_ANOMALY":282.9538,"EPHEMERIS_TYPE":0,"CLASSIFICATION_TYPE":"U","NORAD_CAT_ID":52685,"ELEMENT_SET_NO":999,"REV_AT_EPOCH":21109,"BSTAR":-0.00013095798,"MEAN_MOTION_DOT":-2.372e-5,"MEAN_MOTION_DDOT":0},{"OBJECT_NAME":"COSMOS 2251 DEB","OBJECT_ID":"1993-036EU","EPOCH":"2026-03-09T14:44:02.306976","MEAN_MOTION":15.10275873,"ECCENTRICITY":0.0002082,"INCLINATION":74.0027,"RA_OF_ASC_NODE":262.4484,"ARG_OF_PERICENTER":258.1067,"MEAN_ANOMALY":101.9891,"EPHEMERIS_TYPE":0,"CLASSIFICATION_TYPE":"U","NORAD_CAT_ID":33939,"ELEMENT_SET_NO":999,"REV_AT_EPOCH":90059,"BSTAR":0.0040153,"MEAN_MOTION_DOT":0.00066338,"MEAN_MOTION_DDOT":0}]
